[{"OBJECT_NAME":"STARLINK-3606","OBJECT_ID":"2022-017AR","EPOCH":"2026-03-14T22:31:21.656640","MEAN_MOTION":15.08842442,"ECCENTRICITY":0.00013386,"INCLINATION":53.2174,"RA_OF_ASC_NODE":315.5595,"ARG_OF_PERICENTER":73.4978,"MEAN_ANOMALY":286.6161,"EPHEMERIS_TYPE":0,"CLASSIFICATION_TYPE":"U","NORAD_CAT_ID":51807,"ELEMENT_SET_NO":999,"REV_AT_EPOCH":22490,"BSTAR":0.00016441265,"MEAN_MOTION_DOT":2.33e-5,"MEAN_MOTION_DDOT":0},{"OBJECT_NAME":"STARLINK-3609","OBJECT_ID":"2022-017AS","EPOCH":"2026-03-14T22:10:10.451712","MEAN_MOTION":15.08837104,"ECCENTRICITY":0.00010477,"INCLINATION":53.2188,"RA_OF_ASC_NODE":315.6227,"ARG_OF_PERICENTER":109.4362,"MEAN_ANOMALY":250.6744,"EPHEMERIS_TYPE":0,"CLASSIFICATION_TYPE":"U","NORAD_CAT_ID":51808,"ELEMENT_SET_NO":999,"REV_AT_EPOCH":22475,"BSTAR":0.00030272757,"MEAN_MOTION_DOT":4.533e-5,"MEAN_MOTION_DDOT":0},{"OBJECT_NAME":"STARLINK-3607","OBJECT_ID":"2022-017AT","EPOCH":"2026-03-14T22:20:45.845088","MEAN_MOTION":15.08843861,"ECCENTRICITY":0.00014311,"INCLINATION":53.2178,"RA_OF_ASC_NODE":315.5545,"ARG_OF_PERICENTER":85.7606,"MEAN_ANOMALY":274.3549,"EPHEMERIS_TYPE":0,"CLASSIFICATION_TYPE":"U","NORAD_CAT_ID":51809,"ELEMENT_SET_NO":999,"REV_AT_EPOCH":22485,"BSTAR":5.0324521e-5,"MEAN_MOTION_DOT":5.13e-6,"MEAN_MOTION_DDOT":0},{"OBJECT_NAME":"STARLINK-3613","OBJECT_ID":"2022-017AU","EPOCH":"2026-03-14T21:39:44.445600","MEAN_MOTION":15.08841992,"ECCENTRICITY":0.00012989,"INCLINATION":53.2181,"RA_OF_ASC_NODE":305.9413,"ARG_OF_PERICENTER":81.5642,"MEAN_ANOMALY":278.5498,"EPHEMERIS_TYPE":0,"CLASSIFICATION_TYPE":"U","NORAD_CAT_ID":51810,"ELEMENT_SET_NO":999,"REV_AT_EPOCH":22486,"BSTAR":1.6749134e-5,"MEAN_MOTION_DOT":-2.1e-7,"MEAN_MOTION_DDOT":0},{"OBJECT_NAME":"STARLINK-3569","OBJECT_ID":"2022-017AV","EPOCH":"2026-03-14T22:15:28.767456","MEAN_MOTION":15.0884052,"ECCENTRICITY":0.00015257,"INCLINATION":53.2187,"RA_OF_ASC_NODE":315.6083,"ARG_OF_PERICENTER":91.2211,"MEAN_ANOMALY":268.8956,"EPHEMERIS_TYPE":0,"CLASSIFICATION_TYPE":"U","NORAD_CAT_ID":51811,"ELEMENT_SET_NO":999,"REV_AT_EPOCH":22475,"BSTAR":1.5375164e-5,"MEAN_MOTION_DOT":-4.3e-7,"MEAN_MOTION_DDOT":0},{"OBJECT_NAME":"STARLINK-3610","OBJECT_ID":"2022-017AW","EPOCH":"2026-03-14T22:27:23.419872","MEAN_MOTION":15.08839939,"ECCENTRICITY":0.00015041,"INCLINATION":53.2172,"RA_OF_ASC_NODE":305.5724,"ARG_OF_PERICENTER":82.0521,"MEAN_ANOMALY":278.0642,"EPHEMERIS_TYPE":0,"CLASSIFICATION_TYPE":"U","NORAD_CAT_ID":51812,"ELEMENT_SET_NO":999,"REV_AT_EPOCH":22487,"BSTAR":0.00014210814,"MEAN_MOTION_DOT":1.974e-5,"MEAN_MOTION_DDOT":0},{"OBJECT_NAME":"STARLINK-3552","OBJECT_ID":"2022-017AX","EPOCH":"2026-03-14T22:00:54.403776","MEAN_MOTION":15.08838211,"ECCENTRICITY":0.000147,"INCLINATION":53.218,"RA_OF_ASC_NODE":305.6832,"ARG_OF_PERICENTER":88.5664,"MEAN_ANOMALY":271.5496,"EPHEMERIS_TYPE":0,"CLASSIFICATION_TYPE":"U","NORAD_CAT_ID":51813,"ELEMENT_SET_NO":999,"REV_AT_EPOCH":22487,"BSTAR":1.42469e-5,"MEAN_MOTION_DOT":-6.1e-7,"MEAN_MOTION_DDOT":0},{"OBJECT_NAME":"STARLINK-3599","OBJECT_ID":"2022-017AY","EPOCH":"2026-03-14T22:16:47.986752","MEAN_MOTION":15.08837075,"ECCENTRICITY":0.00013669,"INCLINATION":53.2182,"RA_OF_ASC_NODE":305.6066,"ARG_OF_PERICENTER":93.2978,"MEAN_ANOMALY":266.8171,"EPHEMERIS_TYPE":0,"CLASSIFICATION_TYPE":"U","NORAD_CAT_ID":51814,"ELEMENT_SET_NO":999,"REV_AT_EPOCH":22487,"BSTAR":3.8497423e-5,"MEAN_MOTION_DOT":3.25e-6,"MEAN_MOTION_DDOT":0},{"OBJECT_NAME":"STARLINK-3604","OBJECT_ID":"2022-017AZ","EPOCH":"2026-03-14T22:22:05.128320","MEAN_MOTION":15.08836454,"ECCENTRICITY":0.00015162,"INCLINATION":53.2185,"RA_OF_ASC_NODE":305.5867,"ARG_OF_PERICENTER":92.8032,"MEAN_ANOMALY":267.3133,"EPHEMERIS_TYPE":0,"CLASSIFICATION_TYPE":"U","NORAD_CAT_ID":51815,"ELEMENT_SET_NO":999,"REV_AT_EPOCH":22487,"BSTAR":-3.2398404e-5,"MEAN_MOTION_DOT":-8.04e-6,"MEAN_MOTION_DDOT":0},{"OBJECT_NAME":"STARLINK-3603","OBJECT_ID":"2022-017BA","EPOCH":"2026-03-15T08:00:01.999872","MEAN_MOTION":15.80154505,"ECCENTRICITY":5.552e-5,"INCLINATION":53.2165,"RA_OF_ASC_NODE":281.7348,"ARG_OF_PERICENTER":130.2888,"MEAN_ANOMALY":352.5238,"EPHEMERIS_TYPE":0,"CLASSIFICATION_TYPE":"U","NORAD_CAT_ID":51816,"ELEMENT_SET_NO":999,"REV_AT_EPOCH":578,"BSTAR":0.0024514718,"MEAN_MOTION_DOT":0.00495415,"MEAN_MOTION_DDOT":0},{"OBJECT_NAME":"STARLINK-3542","OBJECT_ID":"2022-022A","EPOCH":"2026-03-15T02:03:19.014336","MEAN_MOTION":15.08859267,"ECCENTRICITY":0.00015992,"INCLINATION":53.2192,"RA_OF_ASC_NODE":354.8934,"ARG_OF_PERICENTER":79.0836,"MEAN_ANOMALY":281.0336,"EPHEMERIS_TYPE":0,"CLASSIFICATION_TYPE":"U","NORAD_CAT_ID":51852,"ELEMENT_SET_NO":999,"REV_AT_EPOCH":22257,"BSTAR":0.00014740594,"MEAN_MOTION_DOT":2.06e-5,"MEAN_MOTION_DDOT":0},{"OBJECT_NAME":"STARLINK-3545","OBJECT_ID":"2022-022D","EPOCH":"2026-03-15T01:36:49.326048","MEAN_MOTION":15.08841537,"ECCENTRICITY":0.00017013,"INCLINATION":53.2199,"RA_OF_ASC_NODE":354.9052,"ARG_OF_PERICENTER":92.3851,"MEAN_ANOMALY":267.7336,"EPHEMERIS_TYPE":0,"CLASSIFICATION_TYPE":"U","NORAD_CAT_ID":51855,"ELEMENT_SET_NO":999,"REV_AT_EPOCH":22378,"BSTAR":0.00012101541,"MEAN_MOTION_DOT":1.639e-5,"MEAN_MOTION_DDOT":0},{"OBJECT_NAME":"STARLINK-3568","OBJECT_ID":"2022-022E","EPOCH":"2026-03-15T01:54:07.825536","MEAN_MOTION":15.0883476,"ECCENTRICITY":0.00012689,"INCLINATION":53.2179,"RA_OF_ASC_NODE":354.9371,"ARG_OF_PERICENTER":88.9644,"MEAN_ANOMALY":271.1494,"EPHEMERIS_TYPE":0,"CLASSIFICATION_TYPE":"U","NORAD_CAT_ID":51856,"ELEMENT_SET_NO":999,"REV_AT_EPOCH":22386,"BSTAR":-0.00011173288,"MEAN_MOTION_DOT":-2.065e-5,"MEAN_MOTION_DDOT":0},{"OBJECT_NAME":"STARLINK-3571","OBJECT_ID":"2022-022F","EPOCH":"2026-03-15T01:38:13.203168","MEAN_MOTION":15.08838488,"ECCENTRICITY":0.00014138,"INCLINATION":53.2197,"RA_OF_ASC_NODE":354.9861,"ARG_OF_PERICENTER":83.0954,"MEAN_ANOMALY":277.0199,"EPHEMERIS_TYPE":0,"CLASSIFICATION_TYPE":"U","NORAD_CAT_ID":51857,"ELEMENT_SET_NO":999,"REV_AT_EPOCH":22383,"BSTAR":4.0483678e-5,"MEAN_MOTION_DOT":3.56e-6,"MEAN_MOTION_DDOT":0},{"OBJECT_NAME":"STARLINK-3563","OBJECT_ID":"2022-022G","EPOCH":"2026-03-15T01:42:07.987392","MEAN_MOTION":15.08846519,"ECCENTRICITY":0.00013962,"INCLINATION":53.2187,"RA_OF_ASC_NODE":354.9636,"ARG_OF_PERICENTER":87.292,"MEAN_ANOMALY":272.8232,"EPHEMERIS_TYPE":0,"CLASSIFICATION_TYPE":"U","NORAD_CAT_ID":51858,"ELEMENT_SET_NO":999,"REV_AT_EPOCH":22383,"BSTAR":8.2980827e-5,"MEAN_MOTION_DOT":1.033e-5,"MEAN_MOTION_DDOT":0},{"OBJECT_NAME":"STARLINK-3560","OBJECT_ID":"2022-022H","EPOCH":"2026-03-15T00:30:41.845824","MEAN_MOTION":15.0881217,"ECCENTRICITY":0.00012683,"INCLINATION":53.2179,"RA_OF_ASC_NODE":345.1948,"ARG_OF_PERICENTER":99.934,"MEAN_ANOMALY":260.1796,"EPHEMERIS_TYPE":0,"CLASSIFICATION_TYPE":"U","NORAD_CAT_ID":51859,"ELEMENT_SET_NO":999,"REV_AT_EPOCH":22396,"BSTAR":-0.00031218825,"MEAN_MOTION_DOT":-5.249e-5,"MEAN_MOTION_DDOT":0}]
