STARLINK-3606           
1 51807U 22017AR  26073.93844510  .00002330  00000+0  16441-3 0  9991
2 51807  53.2174 315.5595 0001338  73.4978 286.6161 15.08842442224906
STARLINK-3609           
1 51808U 22017AS  26073.92373208  .00004533  00000+0  30273-3 0  9998
2 51808  53.2188 315.6227 0001047 109.4362 250.6744 15.08837104224759
STARLINK-3607           
1 51809U 22017AT  26073.93108617  .00000513  00000+0  50325-4 0  9995
2 51809  53.2178 315.5545 0001431  85.7606 274.3549 15.08843861224859
STARLINK-3613           
1 51810U 22017AU  26073.90259775 -.00000021  00000+0  16749-4 0  9993
2 51810  53.2181 305.9413 0001298  81.5642 278.5498 15.08841992224860
STARLINK-3569           
1 51811U 22017AV  26073.92741629 -.00000043  00000+0  15375-4 0  9998
2 51811  53.2187 315.6083 0001525  91.2211 268.8956 15.08840520224756
STARLINK-3610           
1 51812U 22017AW  26073.93568773  .00001974  00000+0  14211-3 0  9997
2 51812  53.2172 305.5724 0001504  82.0521 278.0642 15.08839939224870
STARLINK-3552           
1 51813U 22017AX  26073.91729634 -.00000061  00000+0  14247-4 0  9998
2 51813  53.2180 305.6832 0001470  88.5664 271.5496 15.08838211224879
STARLINK-3599           
1 51814U 22017AY  26073.92833318  .00000325  00000+0  38497-4 0  9990
2 51814  53.2182 305.6066 0001366  93.2978 266.8171 15.08837075224870
STARLINK-3604           
1 51815U 22017AZ  26073.93200380 -.00000804  00000+0 -32398-4 0  9997
2 51815  53.2185 305.5867 0001516  92.8032 267.3133 15.08836454224879
STARLINK-3603           
1 51816U 22017BA  26074.33335648  .00495415  00000+0  24515-2 0  9993
2 51816  53.2165 281.7348 0000555 130.2888 352.5238 15.80154505  5785
STARLINK-3542           
1 51852U 22022A   26074.08563674  .00002060  00000+0  14741-3 0  9994
2 51852  53.2192 354.8934 0001599  79.0836 281.0336 15.08859267222570
STARLINK-3545           
1 51855U 22022D   26074.06723757  .00001639  00000+0  12102-3 0  9995
2 51855  53.2199 354.9052 0001701  92.3851 267.7336 15.08841537223788
STARLINK-3568           
1 51856U 22022E   26074.07925724 -.00002065  00000+0 -11173-3 0  9998
2 51856  53.2179 354.9371 0001268  88.9644 271.1494 15.08834760223863
STARLINK-3571           
1 51857U 22022F   26074.06820837  .00000356  00000+0  40484-4 0  9994
2 51857  53.2197 354.9861 0001413  83.0954 277.0199 15.08838488223835
STARLINK-3563           
1 51858U 22022G   26074.07092578  .00001033  00000+0  82981-4 0  9990
2 51858  53.2187 354.9636 0001396  87.2920 272.8232 15.08846519223839
STARLINK-3560           
1 51859U 22022H   26074.02131766 -.00005249  00000+0 -31219-3 0  9991
2 51859  53.2179 345.1948 0001268  99.9340 260.1796 15.08812170223968
